LEMUR-2-FINNIAN         
1 66782U 25276DX  26162.67814113  .00006356  00000+0  51108-3 0  9996
2 66782  97.5274 233.8450 0008739 105.6986 254.5203 15.00307767 19177
LEMUR-2-STARLIGHT       
1 66783U 25276DY  26162.69634003  .00004922  00000+0  41006-3 0  9990
2 66783  97.5278 233.5221 0015288 143.3687 216.8584 14.98986446 29378
LEMUR-2-TARTIFLETTE     
1 66784U 25276DZ  26162.69492633  .00005691  00000+0  47318-3 0  9998
2 66784  97.5282 233.5264 0013991 149.5243 210.6797 14.99015288 29372
LEMUR-2-VUKASIN         
1 66785U 25276EA  26162.15976427  .00004942  00000+0  39869-3 0  9998
2 66785  97.5314 233.2915 0006318 138.3619 221.8087 15.00300144 29240
LEMUR-2-HOTSPUR-TOM     
1 66786U 25276EB  26162.15301255  .00005898  00000+0  49164-3 0  9990
2 66786  97.5266 232.9859 0015449 145.9165 214.3054 14.98886330 29226
LEMUR-2-MYRA            
1 66787U 25276EC  26162.72431161  .00006170  00000+0  49717-3 0  9992
2 66787  97.5223 233.7848 0015938 159.5516 200.6349 15.00167643 29397
LEMUR-2 FIKRETDENGIZ    
1 67363U 26004A   26162.55407161  .00003796  00000+0  41627-3 0  9990
2 67363  97.8010 161.1988 0009639 148.9344 211.2445 14.88285645 22448
TWILIGHT-1 OBJECT B     
1 67364U 26004B   26161.97087041  .00001581  00000+0  17945-3 0  9993
2 67364  97.8060 160.6426 0009547 142.2653 217.9235 14.87680566 22364
LEMUR-2-MARIO-SOUSA     
1 67365U 26004C   26162.60562160  .00004383  00000+0  47746-3 0  9990
2 67365  97.7987 161.2458 0009265 149.4635 210.7122 14.88469447 22461
LEMUR-2-SONNENBLUME     
1 67367U 26004E   26162.53606638  .00002730  00000+0  30107-3 0  9990
2 67367  97.7981 161.1641 0008729 151.5281 208.6414 14.88286937 22455
LEMUR-2-WOBLER          
1 67368U 26004F   26162.59752389  .00003624  00000+0  39578-3 0  9996
2 67368  97.8033 161.3411 0009178 141.4168 218.7707 14.88479015 22462
LEMUR-2-GRAM-E-SUE      
1 67370U 26004H   26162.52079536  .00002042  00000+0  22586-3 0  9992
2 67370  97.7963 161.1642 0007853 152.2002 207.9636 14.88446047 22454
LEMUR-2-KATIE           
1 67387U 26004AA  26162.58120047  .00003297  00000+0  34742-3 0  9990
2 67387  97.8031 161.6644 0004725 104.7192 255.4549 14.90014268 22475
LEMUR-2-HCS-BAZUS       
1 67388U 26004AB  26162.58031157  .00004210  00000+0  44197-3 0  9995
2 67388  97.8017 161.6451 0004283 100.2869 259.8832 14.90016852 22471
